start=new Date('2022-07-25T00:00:00.000Z').valueOf();
sats=[{"TLE_LINE1":"1 46574U 20070AU  22205.78236455  .00004063  00000-0  29152-3 0  9991","SEMIMAJOR_AXIS":"6925.347","GP_ID":"208796218","LAUNCH_DATE":"2020-10-06","BSTAR":"0.00029152000000","EPOCH":"2022-07-24T18:46:36.297120","INCLINATION":"53.0550","MEAN_MOTION":"15.06400555","PERIOD":"95.592","TLE_LINE2":"2 46574  53.0550 344.8769 0001379  76.4613 283.6529 15.06400555100179","PERIAPSIS":"546.257","MEAN_MOTION_DDOT":"0.0000000000000","FILE":"3521124","TIME_SYSTEM":"UTC","REV_AT_EPOCH":"10017","SITE":"AFETR","OBJECT_TYPE":"PAYLOAD","CENTER_NAME":"EARTH","MEAN_ELEMENT_THEORY":"SGP4","ECCENTRICITY":"0.00013790","NORAD_CAT_ID":"46574","COUNTRY_CODE":"US","APOAPSIS":"548.167","OBJECT_NAME":"STARLINK-1660","DECAY_DATE":null,"ARG_OF_PERICENTER":"76.4613","REF_FRAME":"TEME","RCS_SIZE":"LARGE","MEAN_ANOMALY":"283.6529","MEAN_MOTION_DOT":"0.00004063","OBJECT_ID":"2020-070AU","CLASSIFICATION_TYPE":"U","ELEMENT_SET_NO":"999","RA_OF_ASC_NODE":"344.8769","EPHEMERIS_TYPE":"0"},{"CENTER_NAME":"EARTH","OBJECT_TYPE":"PAYLOAD","MEAN_ELEMENT_THEORY":"SGP4","REV_AT_EPOCH":"10050","SITE":"AFETR","TIME_SYSTEM":"UTC","MEAN_MOTION_DDOT":"0.0000000000000","FILE":"3521124","PERIAPSIS":"546.166","INCLINATION":"53.0557","MEAN_MOTION":"15.06390334","TLE_LINE2":"2 46575  53.0557 320.2259 0001555  66.0298 294.0854 15.06390334100506","PERIOD":"95.593","BSTAR":"-0.00015711000000","LAUNCH_DATE":"2020-10-06","EPOCH":"2022-07-24T16:55:49.049184","TLE_LINE1":"1 46575U 20070AV  22205.70542881 -.00002620  00000-0 -15711-3 0  9992","SEMIMAJOR_AXIS":"6925.378","GP_ID":"208796969","RA_OF_ASC_NODE":"320.2259","EPHEMERIS_TYPE":"0","OBJECT_ID":"2020-070AV","ELEMENT_SET_NO":"999","CLASSIFICATION_TYPE":"U","RCS_SIZE":"LARGE","REF_FRAME":"TEME","MEAN_MOTION_DOT":"-0.00002620","MEAN_ANOMALY":"294.0854","DECAY_DATE":null,"ARG_OF_PERICENTER":"66.0298","OBJECT_NAME":"STARLINK-1675","COUNTRY_CODE":"US","APOAPSIS":"548.320","NORAD_CAT_ID":"46575","ECCENTRICITY":"0.00015550"},{"OBJECT_TYPE":"PAYLOAD","CENTER_NAME":"EARTH","MEAN_ELEMENT_THEORY":"SGP4","REV_AT_EPOCH":"10016","SITE":"AFETR","TIME_SYSTEM":"UTC","MEAN_MOTION_DDOT":"0.0000000000000","FILE":"3521124","PERIAPSIS":"546.230","INCLINATION":"53.0572","MEAN_MOTION":"15.06408302","PERIOD":"95.592","TLE_LINE2":"2 46576  53.0572 345.1952 0001384 100.5803 259.5341 15.06408302100160","LAUNCH_DATE":"2020-10-06","BSTAR":"0.00009922500000","EPOCH":"2022-07-24T17:00:25.663104","SEMIMAJOR_AXIS":"6925.323","TLE_LINE1":"1 46576U 20070AW  22205.70863036  .00001197  00000-0  99225-4 0  9990","GP_ID":"208796720","RA_OF_ASC_NODE":"345.1952","EPHEMERIS_TYPE":"0","OBJECT_ID":"2020-070AW","CLASSIFICATION_TYPE":"U","ELEMENT_SET_NO":"999","REF_FRAME":"TEME","RCS_SIZE":"LARGE","MEAN_ANOMALY":"259.5341","MEAN_MOTION_DOT":"0.00001197","DECAY_DATE":null,"ARG_OF_PERICENTER":"100.5803","OBJECT_NAME":"STARLINK-1677","COUNTRY_CODE":"US","APOAPSIS":"548.147","ECCENTRICITY":"0.00013840","NORAD_CAT_ID":"46576"},{"TIME_SYSTEM":"UTC","MEAN_MOTION_DDOT":"0.0000000000000","FILE":"3521124","CENTER_NAME":"EARTH","OBJECT_TYPE":"PAYLOAD","MEAN_ELEMENT_THEORY":"SGP4","REV_AT_EPOCH":"10016","SITE":"AFETR","BSTAR":"0.00051886000000","LAUNCH_DATE":"2020-10-06","EPOCH":"2022-07-24T17:42:54.631584","SEMIMAJOR_AXIS":"6925.299","TLE_LINE1":"1 46577U 20070AX  22205.73813231  .00007459  00000-0  51886-3 0  9993","GP_ID":"208797463","PERIAPSIS":"546.143","INCLINATION":"53.0539","MEAN_MOTION":"15.06416041","TLE_LINE2":"2 46577  53.0539 345.0686 0001475  73.6961 286.4190 15.06416041100163","PERIOD":"95.591","RCS_SIZE":"LARGE","REF_FRAME":"TEME","MEAN_MOTION_DOT":"0.00007459","MEAN_ANOMALY":"286.4190","DECAY_DATE":null,"ARG_OF_PERICENTER":"73.6961","RA_OF_ASC_NODE":"345.0686","EPHEMERIS_TYPE":"0","OBJECT_ID":"2020-070AX","ELEMENT_SET_NO":"999","CLASSIFICATION_TYPE":"U","NORAD_CAT_ID":"46577","ECCENTRICITY":"0.00014750","OBJECT_NAME":"STARLINK-1682","COUNTRY_CODE":"US","APOAPSIS":"548.186"},{"MEAN_MOTION_DDOT":"0.0000000000000","FILE":"3521124","TIME_SYSTEM":"UTC","REV_AT_EPOCH":"10036","SITE":"AFETR","OBJECT_TYPE":"PAYLOAD","CENTER_NAME":"EARTH","MEAN_ELEMENT_THEORY":"SGP4","SEMIMAJOR_AXIS":"6925.366","TLE_LINE1":"1 46578U 20070AY  22205.65289905  .00002535  00000-0  18907-3 0  9997","GP_ID":"208795720","LAUNCH_DATE":"2020-10-06","BSTAR":"0.00018907000000","EPOCH":"2022-07-24T15:40:10.477920","INCLINATION":"53.0556","MEAN_MOTION":"15.06394446","PERIOD":"95.592","TLE_LINE2":"2 46578  53.0556 330.5070 0001406  77.2153 282.8993 15.06394446100363","PERIAPSIS":"546.257","DECAY_DATE":null,"ARG_OF_PERICENTER":"77.2153","REF_FRAME":"TEME","RCS_SIZE":"LARGE","MEAN_ANOMALY":"282.8993","MEAN_MOTION_DOT":"0.00002535","OBJECT_ID":"2020-070AY","CLASSIFICATION_TYPE":"U","ELEMENT_SET_NO":"999","RA_OF_ASC_NODE":"330.5070","EPHEMERIS_TYPE":"0","ECCENTRICITY":"0.00014060","NORAD_CAT_ID":"46578","COUNTRY_CODE":"US","APOAPSIS":"548.204","OBJECT_NAME":"STARLINK-1683"},{"CLASSIFICATION_TYPE":"U","ELEMENT_SET_NO":"999","OBJECT_ID":"2020-070AZ","EPHEMERIS_TYPE":"0","RA_OF_ASC_NODE":"344.5393","ARG_OF_PERICENTER":"79.4891","DECAY_DATE":null,"MEAN_ANOMALY":"280.6269","MEAN_MOTION_DOT":"0.00003648","REF_FRAME":"TEME","RCS_SIZE":"LARGE","APOAPSIS":"548.248","COUNTRY_CODE":"US","OBJECT_NAME":"STARLINK-1705","ECCENTRICITY":"0.00015170","NORAD_CAT_ID":"46579","SITE":"AFETR","REV_AT_EPOCH":"10018","MEAN_ELEMENT_THEORY":"SGP4","OBJECT_TYPE":"PAYLOAD","CENTER_NAME":"EARTH","FILE":"3521124","MEAN_MOTION_DDOT":"0.0000000000000","TIME_SYSTEM":"UTC","PERIOD":"95.592","TLE_LINE2":"2 46579  53.0553 344.5393 0001517  79.4891 280.6269 15.06405405100180","INCLINATION":"53.0553","MEAN_MOTION":"15.06405405","PERIAPSIS":"546.146","GP_ID":"208796470","SEMIMAJOR_AXIS":"6925.332","TLE_LINE1":"1 46579U 20070AZ  22205.85607980  .00003648  00000-0  26361-3 0  9996","EPOCH":"2022-07-24T20:32:45.294720","LAUNCH_DATE":"2020-10-06","BSTAR":"0.00026361000000"},{"MEAN_MOTION_DOT":"-0.00000073","MEAN_ANOMALY":"288.3299","RCS_SIZE":"LARGE","REF_FRAME":"TEME","ARG_OF_PERICENTER":"71.7837","DECAY_DATE":null,"EPHEMERIS_TYPE":"0","RA_OF_ASC_NODE":"344.9334","ELEMENT_SET_NO":"999","CLASSIFICATION_TYPE":"U","OBJECT_ID":"2020-070BA","NORAD_CAT_ID":"46580","ECCENTRICITY":"0.00013510","OBJECT_NAME":"STARLINK-1708","APOAPSIS":"548.172","COUNTRY_CODE":"US","TIME_SYSTEM":"UTC","FILE":"3521124","MEAN_MOTION_DDOT":"0.0000000000000","MEAN_ELEMENT_THEORY":"SGP4","CENTER_NAME":"EARTH","OBJECT_TYPE":"PAYLOAD","SITE":"AFETR","REV_AT_EPOCH":"10017","EPOCH":"2022-07-24T18:25:22.905408","BSTAR":"0.00001400700000","LAUNCH_DATE":"2020-10-06","GP_ID":"208797220","TLE_LINE1":"1 46580U 20070BA  22205.76762622 -.00000073  00000-0  14007-4 0  9998","SEMIMAJOR_AXIS":"6925.372","PERIAPSIS":"546.301","TLE_LINE2":"2 46580  53.0565 344.9334 0001351  71.7837 288.3299 15.06392503100176","PERIOD":"95.593","INCLINATION":"53.0565","MEAN_MOTION":"15.06392503"},{"OBJECT_NAME":"STARLINK-1712","APOAPSIS":"548.152","COUNTRY_CODE":"US","ECCENTRICITY":"0.00013270","NORAD_CAT_ID":"46581","EPHEMERIS_TYPE":"0","RA_OF_ASC_NODE":"339.8075","CLASSIFICATION_TYPE":"U","ELEMENT_SET_NO":"999","OBJECT_ID":"2020-070BB","MEAN_ANOMALY":"280.9402","MEAN_MOTION_DOT":"-0.00000966","REF_FRAME":"TEME","RCS_SIZE":"LARGE","ARG_OF_PERICENTER":"79.1736","DECAY_DATE":null,"PERIAPSIS":"546.314","PERIOD":"95.593","TLE_LINE2":"2 46581  53.0548 339.8075 0001327  79.1736 280.9402 15.06393716100245","MEAN_MOTION":"15.06393716","INCLINATION":"53.0548","EPOCH":"2022-07-24T19:11:09.649536","LAUNCH_DATE":"2020-10-06","BSTAR":"-0.00004594900000","GP_ID":"208796964","TLE_LINE1":"1 46581U 20070BB  22205.79941724 -.00000966  00000-0 -45949-4 0  9995","SEMIMAJOR_AXIS":"6925.368","MEAN_ELEMENT_THEORY":"SGP4","OBJECT_TYPE":"PAYLOAD","CENTER_NAME":"EARTH","SITE":"AFETR","REV_AT_EPOCH":"10024","TIME_SYSTEM":"UTC","FILE":"3521124","MEAN_MOTION_DDOT":"0.0000000000000"},{"RA_OF_ASC_NODE":"340.4668","EPHEMERIS_TYPE":"0","OBJECT_ID":"2020-070BC","CLASSIFICATION_TYPE":"U","ELEMENT_SET_NO":"999","REF_FRAME":"TEME","RCS_SIZE":"LARGE","MEAN_ANOMALY":"275.9434","MEAN_MOTION_DOT":"0.00002580","DECAY_DATE":null,"ARG_OF_PERICENTER":"84.1699","OBJECT_NAME":"STARLINK-1728","COUNTRY_CODE":"US","APOAPSIS":"548.074","ECCENTRICITY":"0.00012640","NORAD_CAT_ID":"46582","CENTER_NAME":"EARTH","OBJECT_TYPE":"PAYLOAD","MEAN_ELEMENT_THEORY":"SGP4","REV_AT_EPOCH":"10022","SITE":"AFETR","TIME_SYSTEM":"UTC","MEAN_MOTION_DDOT":"0.0000000000000","FILE":"3521124","PERIAPSIS":"546.323","INCLINATION":"53.0549","MEAN_MOTION":"15.06404971","PERIOD":"95.592","TLE_LINE2":"2 46582  53.0549 340.4668 0001264  84.1699 275.9434 15.06404971100220","LAUNCH_DATE":"2020-10-06","BSTAR":"0.00019198000000","EPOCH":"2022-07-24T15:38:50.713440","TLE_LINE1":"1 46582U 20070BC  22205.65197585  .00002580  00000-0  19198-3 0  9997","SEMIMAJOR_AXIS":"6925.333","GP_ID":"208796219"},{"FILE":"3521124","MEAN_MOTION_DDOT":"0.0000000000000","TIME_SYSTEM":"UTC","SITE":"AFETR","REV_AT_EPOCH":"9996","MEAN_ELEMENT_THEORY":"SGP4","CENTER_NAME":"EARTH","OBJECT_TYPE":"PAYLOAD","GP_ID":"208796970","TLE_LINE1":"1 46583U 20070BD  22205.83442972  .00000469  00000-0  50378-4 0  9991","SEMIMAJOR_AXIS":"6925.349","EPOCH":"2022-07-24T20:01:34.727808","BSTAR":"0.00005037800000","LAUNCH_DATE":"2020-10-06","TLE_LINE2":"2 46583  53.0573 359.6410 0001495  90.7345 269.3816 15.06399734 99961","PERIOD":"95.592","INCLINATION":"53.0573","MEAN_MOTION":"15.06399734","PERIAPSIS":"546.179","ARG_OF_PERICENTER":"90.7345","DECAY_DATE":null,"MEAN_MOTION_DOT":"0.00000469","MEAN_ANOMALY":"269.3816","RCS_SIZE":"LARGE","REF_FRAME":"TEME","ELEMENT_SET_NO":"999","CLASSIFICATION_TYPE":"U","OBJECT_ID":"2020-070BD","EPHEMERIS_TYPE":"0","RA_OF_ASC_NODE":"359.6410","NORAD_CAT_ID":"46583","ECCENTRICITY":"0.00014950","APOAPSIS":"548.250","COUNTRY_CODE":"US","OBJECT_NAME":"STARLINK-1729"}];
